[
  {"postcode": "3511AA", "lat": 52.090, "lon": 5.120, "woonplaats": "Utrecht"},
  {"postcode": "3511AB", "lat": 52.091, "lon": 5.121, "woonplaats": "Utrecht"},
  {"postcode": "3512AA", "lat": 52.092, "lon": 5.122, "woonplaats": "Utrecht"},
  {"postcode": "3512AB", "lat": 52.093, "lon": 5.123, "woonplaats": "Utrecht"},
  {"postcode": "3513AA", "lat": 52.094, "lon": 5.124, "woonplaats": "Utrecht"},
  {"postcode": "3513AB", "lat": 52.095, "lon": 5.125, "woonplaats": "Utrecht"},
  {"postcode": "3514AA", "lat": 52.096, "lon": 5.126, "woonplaats": "Utrecht"},
  {"postcode": "3514AB", "lat": 52.097, "lon": 5.127, "woonplaats": "Utrecht"},
  {"postcode": "3515AA", "lat": 52.098, "lon": 5.128, "woonplaats": "Utrecht"},
  {"postcode": "3516AA", "lat": 52.099, "lon": 5.129, "woonplaats": "Utrecht"},
  {"postcode": "3521AA", "lat": 52.080, "lon": 5.110, "woonplaats": "Utrecht"},
  {"postcode": "3522AA", "lat": 52.081, "lon": 5.111, "woonplaats": "Utrecht"},
  {"postcode": "3523AA", "lat": 52.082, "lon": 5.112, "woonplaats": "Utrecht"},
  {"postcode": "3524AA", "lat": 52.083, "lon": 5.113, "woonplaats": "Utrecht"},
  {"postcode": "3525AA", "lat": 52.084, "lon": 5.114, "woonplaats": "Utrecht"},
  {"postcode": "3531AA", "lat": 52.070, "lon": 5.100, "woonplaats": "Utrecht"},
  {"postcode": "3532AA", "lat": 52.071, "lon": 5.101, "woonplaats": "Utrecht"},
  {"postcode": "3533AA", "lat": 52.072, "lon": 5.102, "woonplaats": "Utrecht"},
  {"postcode": "3534AA", "lat": 52.073, "lon": 5.103, "woonplaats": "Utrecht"},
  {"postcode": "3541AA", "lat": 52.060, "lon": 5.090, "woonplaats": "Utrecht"},
  {"postcode": "3542AA", "lat": 52.061, "lon": 5.091, "woonplaats": "Utrecht"},
  {"postcode": "3543AA", "lat": 52.062, "lon": 5.092, "woonplaats": "Utrecht"},
  {"postcode": "3544AA", "lat": 52.063, "lon": 5.093, "woonplaats": "Utrecht"},
  {"postcode": "3545AA", "lat": 52.064, "lon": 5.094, "woonplaats": "Utrecht"},
  {"postcode": "3546AA", "lat": 52.065, "lon": 5.095, "woonplaats": "Utrecht"}
]
