[
  {"postcode": "1011AA", "lat": 52.375, "lon": 4.892, "woonplaats": "Amsterdam"},
  {"postcode": "1011AB", "lat": 52.374, "lon": 4.893, "woonplaats": "Amsterdam"},
  {"postcode": "1012AB", "lat": 52.374, "lon": 4.891, "woonplaats": "Amsterdam"},
  {"postcode": "1012AC", "lat": 52.373, "lon": 4.890, "woonplaats": "Amsterdam"},
  {"postcode": "1012AD", "lat": 52.372, "lon": 4.889, "woonplaats": "Amsterdam"},
  {"postcode": "1013AA", "lat": 52.376, "lon": 4.885, "woonplaats": "Amsterdam"},
  {"postcode": "1013AB", "lat": 52.377, "lon": 4.886, "woonplaats": "Amsterdam"},
  {"postcode": "1014AA", "lat": 52.378, "lon": 4.880, "woonplaats": "Amsterdam"},
  {"postcode": "1014AB", "lat": 52.379, "lon": 4.881, "woonplaats": "Amsterdam"},
  {"postcode": "1015AA", "lat": 52.380, "lon": 4.875, "woonplaats": "Amsterdam"},
  {"postcode": "1016AA", "lat": 52.381, "lon": 4.870, "woonplaats": "Amsterdam"},
  {"postcode": "1016AB", "lat": 52.382, "lon": 4.871, "woonplaats": "Amsterdam"},
  {"postcode": "1017AA", "lat": 52.383, "lon": 4.865, "woonplaats": "Amsterdam"},
  {"postcode": "1017AB", "lat": 52.384, "lon": 4.866, "woonplaats": "Amsterdam"},
  {"postcode": "1018AA", "lat": 52.385, "lon": 4.860, "woonplaats": "Amsterdam"},
  {"postcode": "1019AA", "lat": 52.386, "lon": 4.855, "woonplaats": "Amsterdam"},
  {"postcode": "1021AA", "lat": 52.390, "lon": 4.900, "woonplaats": "Amsterdam"},
  {"postcode": "1022AA", "lat": 52.391, "lon": 4.905, "woonplaats": "Amsterdam"},
  {"postcode": "1023AA", "lat": 52.392, "lon": 4.910, "woonplaats": "Amsterdam"},
  {"postcode": "1031AA", "lat": 52.395, "lon": 4.920, "woonplaats": "Amsterdam"},
  {"postcode": "1051AA", "lat": 52.360, "lon": 4.850, "woonplaats": "Amsterdam"},
  {"postcode": "1052AA", "lat": 52.361, "lon": 4.851, "woonplaats": "Amsterdam"},
  {"postcode": "1053AA", "lat": 52.362, "lon": 4.852, "woonplaats": "Amsterdam"},
  {"postcode": "1054AA", "lat": 52.363, "lon": 4.853, "woonplaats": "Amsterdam"},
  {"postcode": "1055AA", "lat": 52.364, "lon": 4.854, "woonplaats": "Amsterdam"},
  {"postcode": "1056AA", "lat": 52.365, "lon": 4.855, "woonplaats": "Amsterdam"},
  {"postcode": "1057AA", "lat": 52.366, "lon": 4.856, "woonplaats": "Amsterdam"},
  {"postcode": "1058AA", "lat": 52.367, "lon": 4.857, "woonplaats": "Amsterdam"},
  {"postcode": "1059AA", "lat": 52.368, "lon": 4.858, "woonplaats": "Amsterdam"},
  {"postcode": "1061AA", "lat": 52.330, "lon": 4.830, "woonplaats": "Amsterdam"},
  {"postcode": "1062AA", "lat": 52.331, "lon": 4.831, "woonplaats": "Amsterdam"},
  {"postcode": "1063AA", "lat": 52.332, "lon": 4.832, "woonplaats": "Amsterdam"},
  {"postcode": "1064AA", "lat": 52.333, "lon": 4.833, "woonplaats": "Amsterdam"},
  {"postcode": "1065AA", "lat": 52.334, "lon": 4.834, "woonplaats": "Amsterdam"},
  {"postcode": "1066AA", "lat": 52.335, "lon": 4.835, "woonplaats": "Amsterdam"},
  {"postcode": "1067AA", "lat": 52.336, "lon": 4.836, "woonplaats": "Amsterdam"},
  {"postcode": "1068AA", "lat": 52.337, "lon": 4.837, "woonplaats": "Amsterdam"},
  {"postcode": "1069AA", "lat": 52.338, "lon": 4.838, "woonplaats": "Amsterdam"},
  {"postcode": "1071AA", "lat": 52.350, "lon": 4.870, "woonplaats": "Amsterdam"},
  {"postcode": "1072AA", "lat": 52.351, "lon": 4.871, "woonplaats": "Amsterdam"},
  {"postcode": "1073AA", "lat": 52.352, "lon": 4.872, "woonplaats": "Amsterdam"},
  {"postcode": "1074AA", "lat": 52.353, "lon": 4.873, "woonplaats": "Amsterdam"},
  {"postcode": "1075AA", "lat": 52.354, "lon": 4.874, "woonplaats": "Amsterdam"},
  {"postcode": "1076AA", "lat": 52.355, "lon": 4.875, "woonplaats": "Amsterdam"},
  {"postcode": "1077AA", "lat": 52.356, "lon": 4.876, "woonplaats": "Amsterdam"},
  {"postcode": "1078AA", "lat": 52.357, "lon": 4.877, "woonplaats": "Amsterdam"},
  {"postcode": "1079AA", "lat": 52.358, "lon": 4.878, "woonplaats": "Amsterdam"},
  {"postcode": "1081AA", "lat": 52.320, "lon": 4.860, "woonplaats": "Amsterdam"},
  {"postcode": "1082AA", "lat": 52.321, "lon": 4.861, "woonplaats": "Amsterdam"},
  {"postcode": "1083AA", "lat": 52.322, "lon": 4.862, "woonplaats": "Amsterdam"}
]
